STARLINK-31578          
1 59321U 24057B   26067.64001234  .00000396  00000+0  23923-4 0  9999
2 59321  42.9986 192.5598 0000943 263.4920  96.5824 15.27576516109684
FLOCK 4G-25             
1 62646U 25009AP  26068.74572546  .00010373  00000+0  38902-3 0  9990
2 62646  97.4049 151.4141 0000828 316.3151  43.8023 15.27424196 63734
